OBJECT_NAME,OBJECT_ID,EPOCH,MEAN_MOTION,ECCENTRICITY,INCLINATION,RA_OF_ASC_NODE,ARG_OF_PERICENTER,MEAN_ANOMALY,EPHEMERIS_TYPE,CLASSIFICATION_TYPE,NORAD_CAT_ID,ELEMENT_SET_NO,REV_AT_EPOCH,BSTAR,MEAN_MOTION_DOT,MEAN_MOTION_DDOT
LEMUR-1,2014-033AL,2026-07-01T04:07:35.260032,14.85298207,.0048953,97.7892,331.6673,33.7811,326.6507,0,U,40044,999,64754,.23983E-3,.2049E-4,0
LEMUR-2-GREENBERG,2017-042N,2026-07-01T00:05:20.406624,15.31748769,.0007403,97.3816,2.5682,320.3464,39.7236,0,U,42837,999,49050,.67723E-3,.20732E-3,0
LEMUR-2-ANDIS,2017-042P,2026-06-30T11:30:25.198848,15.35365645,.00072938,97.3673,2.2767,320.1316,39.9391,0,U,42838,999,49049,.54153988E-3,.1856E-3,0
LEMUR-2-MONSON,2017-042Q,2026-06-30T23:27:01.725120,15.28404972,.0005282,97.4078,2.4928,310.3771,49.7007,0,U,42839,999,49027,.68751E-3,.18973E-3,0
LEMUR-2-FURIAUS,2017-042R,2026-07-01T04:52:37.192800,15.30708838,.0007136,97.3767,0.6902,22.9718,337.1841,0,U,42840,999,49035,.7619E-3,.22597E-3,0
LEMUR-2-PETERG,2017-042S,2026-07-01T01:24:32.805792,15.34489695,.0002746,97.3987,7.1158,289.0929,71.0016,0,U,42841,999,49056,.10618E-2,.35519E-3,0
LEMUR-2-DEMBITZ,2017-042T,2026-07-01T02:12:37.992096,15.30711916,.0005615,97.3820,3.6143,337.1805,22.9186,0,U,42842,999,49047,.71013E-3,.21048E-3,0
LEMUR-2-ZACHARY,2017-042W,2026-07-01T01:30:09.315648,15.51485537,.0002302,97.3577,14.0045,322.3880,37.7211,0,U,42845,999,49135,.10581E-2,.62805E-3,0
LEMUR-2-AMANDA-SVANTE,2021-034B,2026-06-30T04:51:32.143104,15.35068677,.00036202,97.5763,259.8367,175.2768,184.8510,0,U,48269,999,28305,.87438959E-3,.29757E-3,0
LEMUR-2-SPECIAL-K,2021-034F,2026-06-30T05:53:55.555296,15.68596958,.00053115,97.5664,269.0860,223.2451,136.8393,0,U,48273,999,28373,.15089557E-2,.174217E-2,0
LEMUR-2-EMBRIONOVIS,2023-084AQ,2026-07-01T03:03:34.462944,15.37898548,.0007514,97.6309,326.8654,262.4301,97.6089,0,U,56970,999,16982,.4645E-3,.17253E-3,0
LEMUR-2-DEVERILL-M-T,2023-100F,2026-07-01T01:46:15.043008,15.40444367,.000516,99.4459,224.8484,358.2967,1.8254,0,U,57391,999,16338,.97309E-3,.39464E-3,0
LEMUR-2-BASS,2023-174D,2026-06-30T22:56:34.010016,15.43552174,.0008124,97.3852,266.8640,120.6314,239.5736,0,U,58259,999,14748,.46133E-3,.20675E-3,0
LEMUR-2-JK0903EM1407,2023-174CJ,2026-06-30T16:24:17.737632,15.52363718,.00047639,97.3934,272.5393,79.9710,280.2080,0,U,58336,999,14782,.43789537E-3,.26651E-3,0
LEMUR-2-MJR092620,2023-174CN,2026-07-01T03:32:18.441888,15.45390721,.0006522,97.3982,272.4372,75.6648,284.5324,0,U,58340,999,14780,.52735E-3,.25171E-3,0
LEMUR-2-NIMBUS2000,2024-022A,2026-07-01T02:40:39.529632,15.40565605,.0010018,97.4089,32.2910,74.0256,286.2093,0,U,58899,999,13441,.76257E-3,.31049E-3,0
LEMUR-2-VALHALLA,2024-022B,2026-07-01T02:40:16.236192,15.40093977,.0010498,97.4086,32.2732,69.6684,290.5689,0,U,58900,999,13441,.52567E-3,.21023E-3,0
LEMUR-2-CAEL,2024-022E,2026-07-01T02:37:18.030144,15.41425784,.0008568,97.4069,33.2318,55.9569,304.2491,0,U,58903,999,13448,.53154E-3,.22205E-3,0
LEMUR-2-JOHNNYTRUONG,2024-043BA,2026-06-30T23:55:27.668928,15.61507153,.0004789,97.5382,334.5653,135.7400,224.4241,0,U,59146,999,13019,.53315E-3,.45703E-3,0
LEMUR-2-TOMATOKECHUP,2024-149D,2026-07-01T02:41:42.861696,15.36319323,.0002601,97.3802,264.1964,148.5917,211.5483,0,U,60471,999,10430,.41991E-3,.14801E-3,0
LEMUR-2-STELLA,2024-149BT,2026-06-30T23:31:07.864032,15.12095648,.0001114,97.6740,264.4969,98.4167,261.7189,0,U,60533,999,10258,.84663E-3,.14527E-3,0
LEMUR-2-MARHISYAM,2024-149BW,2026-06-30T23:10:07.004640,15.11525784,.0003149,97.6890,264.9453,93.2108,266.9482,0,U,60536,999,10256,.71931E-3,.12135E-3,0
LEMUR-2-AHMED-ASRAR,2024-149DN,2026-07-01T01:15:14.108832,15.13020305,.0000637,97.7012,267.1795,338.3584,21.7619,0,U,60576,999,10266,.94221E-3,.16601E-3,0
LEMUR-2-LLOYD,2024-149DP,2026-06-30T23:08:28.462848,15.09504550,.0005117,97.6753,263.1020,106.1620,254.0172,0,U,60577,999,10247,.79432E-3,.12684E-3,0
LEMUR-2-SQUIRRELCOMM,2024-149DQ,2026-07-01T03:08:10.416768,15.07306808,.0005364,97.6710,262.9986,20.2082,339.9356,0,U,60578,999,10250,.46539E-3,.6967E-4,0
LEMUR-2-SIERRINI,2024-149DR,2026-06-30T11:05:13.216128,15.11217721,.00064047,97.6843,264.1141,129.3062,230.8736,0,U,60579,999,10246,.6015458E-3,.10052E-3,0
LEMUR-2-WILSON,2025-009CP,2026-07-01T03:34:09.548832,14.95223704,.0003023,97.7022,260.3683,18.2808,341.8521,0,U,62694,999,7944,.25813E-3,.2782E-4,0
LEMUR-2-STAR-FOX,2025-009CR,2026-07-01T03:27:21.578400,15.02683442,.0004138,97.6952,263.6531,83.3172,276.8524,0,U,62696,999,7965,.75778E-3,.1006E-3,0
LEMUR-2-ARIANNA,2025-009CU,2026-07-01T03:25:08.467968,15.02679724,.0004461,97.6893,263.4152,88.0333,272.1402,0,U,62699,999,7965,.7353E-3,.9759E-4,0
LEMUR-2-ALISIA,2025-009DB,2026-07-01T01:13:41.488032,15.02968579,.0003024,97.6943,264.1253,173.5710,186.5554,0,U,62706,999,10224,.77934E-3,.10426E-3,0
