LEMUR-1                 
1 40044U 14033AL  26182.17193588  .00002049  00000+0  23983-3 0  9996
2 40044  97.7892 331.6673 0048953  33.7811 326.6507 14.85298207647548
LEMUR-2-GREENBERG       
1 42837U 17042N   26182.00370841  .00020732  00000+0  67723-3 0  9991
2 42837  97.3816   2.5682 0007403 320.3464  39.7236 15.31748769490508
LEMUR-2-ANDIS           
1 42838U 17042P   26181.47945832  .00018560  00000+0  54154-3 0  9990
2 42838  97.3673   2.2767 0007293 320.1316  39.9391 15.35365645490496
LEMUR-2-MONSON          
1 42839U 17042Q   26181.97710330  .00018973  00000+0  68751-3 0  9995
2 42839  97.4078   2.4928 0005282 310.3771  49.7007 15.28404972490278
LEMUR-2-FURIAUS         
1 42840U 17042R   26182.20320825  .00022597  00000+0  76190-3 0  9993
2 42840  97.3767   0.6902 0007136  22.9718 337.1841 15.30708838490353
LEMUR-2-PETERG          
1 42841U 17042S   26182.05871303  .00035519  00000+0  10618-2 0  9999
2 42841  97.3987   7.1158 0002746 289.0929  71.0016 15.34489695490567
LEMUR-2-DEMBITZ         
1 42842U 17042T   26182.09210639  .00021048  00000+0  71013-3 0  9992
2 42842  97.3820   3.6143 0005615 337.1805  22.9186 15.30711916490478
LEMUR-2-ZACHARY         
1 42845U 17042W   26182.06260782  .00062805  00000+0  10581-2 0  9994
2 42845  97.3577  14.0045 0002302 322.3880  37.7211 15.51485537491357
LEMUR-2-AMANDA-SVANTE   
1 48269U 21034B   26181.20245536  .00029757  00000+0  87439-3 0  9997
2 48269  97.5763 259.8367 0003620 175.2768 184.8510 15.35068677283058
LEMUR-2-SPECIAL-K       
1 48273U 21034F   26181.24578189  .00174217  00000+0  15090-2 0  9994
2 48273  97.5664 269.0860 0005311 223.2451 136.8393 15.68596958283731
LEMUR-2-EMBRIONOVIS     
1 56970U 23084AQ  26182.12748221  .00017253  00000+0  46450-3 0  9999
2 56970  97.6309 326.8654 0007514 262.4301  97.6089 15.37898548169825
LEMUR-2-DEVERILL-M-T    
1 57391U 23100F   26182.07378522  .00039464  00000+0  97309-3 0  9990
2 57391  99.4459 224.8484 0005160 358.2967   1.8254 15.40444367163380
LEMUR-2-BASS            
1 58259U 23174D   26181.95594919  .00020675  00000+0  46133-3 0  9994
2 58259  97.3852 266.8640 0008124 120.6314 239.5736 15.43552174147485
LEMUR-2-JK0903EM1407    
1 58336U 23174CJ  26181.68353863  .00026651  00000+0  43790-3 0  9997
2 58336  97.3934 272.5393 0004763  79.9710 280.2080 15.52363718147829
LEMUR-2-MJR092620       
1 58340U 23174CN  26182.14743567  .00025171  00000+0  52735-3 0  9993
2 58340  97.3982 272.4372 0006522  75.6648 284.5324 15.45390721147803
LEMUR-2-NIMBUS2000      
1 58899U 24022A   26182.11156863  .00031049  00000+0  76257-3 0  9995
2 58899  97.4089  32.2910 0010018  74.0256 286.2093 15.40565605134419
LEMUR-2-VALHALLA        
1 58900U 24022B   26182.11129903  .00021023  00000+0  52567-3 0  9992
2 58900  97.4086  32.2732 0010498  69.6684 290.5689 15.40093977134415
LEMUR-2-CAEL            
1 58903U 24022E   26182.10923646  .00022205  00000+0  53154-3 0  9996
2 58903  97.4069  33.2318 0008568  55.9569 304.2491 15.41425784134482
LEMUR-2-JOHNNYTRUONG    
1 59146U 24043BA  26181.99684802  .00045703  00000+0  53315-3 0  9990
2 59146  97.5382 334.5653 0004789 135.7400 224.4241 15.61507153130195
LEMUR-2-TOMATOKECHUP    
1 60471U 24149D   26182.11230164  .00014801  00000+0  41991-3 0  9995
2 60471  97.3802 264.1964 0002601 148.5917 211.5483 15.36319323104303
LEMUR-2-STELLA          
1 60533U 24149BT  26181.97995213  .00014527  00000+0  84663-3 0  9998
2 60533  97.6740 264.4969 0001114  98.4167 261.7189 15.12095648102585
LEMUR-2-MARHISYAM       
1 60536U 24149BW  26181.96535885  .00012135  00000+0  71931-3 0  9992
2 60536  97.6890 264.9453 0003149  93.2108 266.9482 15.11525784102564
LEMUR-2-AHMED-ASRAR     
1 60576U 24149DN  26182.05224663  .00016601  00000+0  94221-3 0  9995
2 60576  97.7012 267.1795 0000637 338.3584  21.7619 15.13020305102660
LEMUR-2-LLOYD           
1 60577U 24149DP  26181.96421832  .00012684  00000+0  79432-3 0  9996
2 60577  97.6753 263.1020 0005117 106.1620 254.0172 15.09504550102477
LEMUR-2-SQUIRRELCOMM    
1 60578U 24149DQ  26182.13067612  .00006967  00000+0  46539-3 0  9998
2 60578  97.6710 262.9986 0005364  20.2082 339.9356 15.07306808102506
LEMUR-2-SIERRINI        
1 60579U 24149DR  26181.46195852  .00010052  00000+0  60155-3 0  9992
2 60579  97.6843 264.1141 0006404 129.3062 230.8736 15.11217721102462
LEMUR-2-WILSON          
1 62694U 25009CP  26182.14872163  .00002782  00000+0  25813-3 0  9994
2 62694  97.7022 260.3683 0003023  18.2808 341.8521 14.95223704 79444
LEMUR-2-STAR-FOX        
1 62696U 25009CR  26182.14399975  .00010060  00000+0  75778-3 0  9994
2 62696  97.6952 263.6531 0004138  83.3172 276.8524 15.02683442 79651
LEMUR-2-ARIANNA         
1 62699U 25009CU  26182.14245912  .00009759  00000+0  73530-3 0  9995
2 62699  97.6893 263.4152 0004461  88.0333 272.1402 15.02679724 79657
LEMUR-2-ALISIA          
1 62706U 25009DB  26182.05117463  .00010426  00000+0  77934-3 0  9998
2 62706  97.6943 264.1253 0003024 173.5710 186.5554 15.02968579102242
